[{"OBJECT_NAME":"STARLINK-2101","OBJECT_ID":"2021-005AJ","EPOCH":"2026-03-09T22:00:01.999584","MEAN_MOTION":15.16034978,"ECCENTRICITY":0.00012406,"INCLINATION":53.0957,"RA_OF_ASC_NODE":35.4622,"ARG_OF_PERICENTER":102.7891,"MEAN_ANOMALY":195.0819,"EPHEMERIS_TYPE":0,"CLASSIFICATION_TYPE":"U","NORAD_CAT_ID":47381,"ELEMENT_SET_NO":999,"REV_AT_EPOCH":573,"BSTAR":0.052963497,"MEAN_MOTION_DOT":0.0111761,"MEAN_MOTION_DDOT":0},{"OBJECT_NAME":"COSMOS 2251 DEB","OBJECT_ID":"1993-036BTX","EPOCH":"2026-02-28T17:34:44.973408","MEAN_MOTION":15.25753352,"ECCENTRICITY":0.00216382,"INCLINATION":73.9681,"RA_OF_ASC_NODE":229.3494,"ARG_OF_PERICENTER":13.6287,"MEAN_ANOMALY":346.5492,"EPHEMERIS_TYPE":0,"CLASSIFICATION_TYPE":"U","NORAD_CAT_ID":38487,"ELEMENT_SET_NO":999,"REV_AT_EPOCH":67986,"BSTAR":0.0024802785,"MEAN_MOTION_DOT":0.00064261,"MEAN_MOTION_DDOT":0}]
